{"fetched_at":"2026-03-30T06:02:59Z","count":15439,"tles":[{"name":"STARLINK-3150","line1":"1 49452U 21104AW  26087.81303003  .00000539  00000+0  51960-4 0  9994","line2":"2 49452  53.2169 133.3133 0001251  88.5253 271.5883 15.08833799241665","category":"Starlink"}]}