{
  "norad_id": 49452,
  "name": "STARLINK-3150",
  "history": [
    {
      "epoch": "2026-03-28T19:30:45.794592Z",
      "apogee_km": 540.6279797500601,
      "perigee_km": 538.8967062604797,
      "latitude_deg": 4.372077580129049e-05,
      "longitude_deg": 14.394426850682978,
      "height_km": 540.6358604440851,
      "semi_major_axis_km": 6917.89934300527,
      "eccentricity": 0.00012513,
      "inclination_deg": 53.2169,
      "raan_deg": 133.3133,
      "arg_perigee_deg": 88.5253,
      "mean_anomaly_deg": 271.5883,
      "mean_motion_rev_day": 15.08833799
    }
  ]
}